HALOSAT                 
1 43549U 98067NX  20162.85171341  .00030108  00000-0  21744-3 0  9999
2 43549  51.6366 324.4361 0002884  73.2469 286.8846 15.73237091108773
ENDUROSAT ONE           
1 43551U 98067NZ  20162.85593544  .00053590  00000-0  27008-3 0  9994
2 43551  51.6341 313.0831 0001593  57.3948 302.7207 15.81097061109338
EQUISAT                 
1 43552U 98067PA  20162.81744965  .00028112  00000-0  19582-3 0  9996
2 43552  51.6362 322.7426 0003505  72.9774 287.1609 15.74120992109169
AEROCUBE 12A            
1 43556U 18046C   20163.10009000  .00000541  00000-0  30850-4 0  9994
2 43556  51.6413 136.0847 0007728 274.4455  85.5642 15.29794591106402
AEROCUBE 12B            
1 43557U 18046D   20162.63703223  .00000389  00000-0  25840-4 0  9993
2 43557  51.6413 138.9818 0007739 272.1046  87.9048 15.29510112106271
UITMSAT-1               
1 43589U 98067PD  20163.61313862  .00036303  00000-0  22216-3 0  9992
2 43589  51.6360 316.6169 0002514  98.9987 261.1298 15.76962412105059
MAYA-1                  
1 43590U 98067PE  20163.60594803  .00036144  00000-0  22132-3 0  9999
2 43590  51.6305 316.5661 0002229  92.7044 267.4211 15.76951915104986
BHUTAN-1                
1 43591U 98067PF  20162.69191428  .00038821  00000-0  23641-3 0  9994
2 43591  51.6372 321.0397 0002670  99.2736 260.8566 15.77040297104846
SIRIUSSAT-1             
1 43595U 98067PG  20163.62368698  .00030442  00000-0  20801-3 0  9993
2 43595  51.6314 321.2234 0001144  34.5498 325.5576 15.74527043104105
SIRIUSSAT-2             
1 43596U 98067PH  20162.85990781  .00033182  00000-0  22791-3 0  9996
2 43596  51.6333 325.9490 0001529  34.9478 325.1622 15.74359749103979
TANUSHA-3               
1 43597U 98067PJ  20162.80381712  .00082057  00000-0  33652-3 0  9993
2 43597  51.6288 313.3053 0001773 308.9300  51.1545 15.85309005104135
SURFSAT                 
1 43614U 18070B   20162.90405172  .00002611  00000-0  67262-4 0  9990
2 43614  93.0200 151.8805 0015692  13.8218 346.3462 15.39168553 97479
CP7 (DAVE)              
1 43615U 18070C   20163.71512040  .00002471  00000-0  63958-4 0  9996
2 43615  93.0202 152.2063 0015653  10.2987 349.8585 15.39027805 97595
ELFIN-B                 
1 43616U 18070D   20162.72115935  .00003568  00000-0  88268-4 0  9998
2 43616  93.0164 151.7360 0016329  15.5568 344.6185 15.40363726 97485
ELFIN-A                 
1 43617U 18070E   20162.49546534  .00003934  00000-0  96797-4 0  9999
2 43617  93.0217 152.1487 0015573  13.8310 346.3368 15.40541134 97456
CUBEBEL-1 (BSUSAT-1)    
1 43666U 18083E   20163.77092718  .00000768  00000-0  40755-4 0  9994
2 43666  97.4887 190.2927 0015724  25.8540  86.8655 15.18253461 89756
DEBRISSAT-2             
1 43680U 98067PR  20151.69072398  .11468650  12477-4  51439-3 0  9995
2 43680  51.6154 356.6377 0010832 273.4515  86.5274 16.42437352111263
CICERO 10               
1 43690U 18088A   20162.84479199  .00000754  00000-0  32872-4 0  9991
2 43690  85.0387  82.6773 0014153 343.5316  16.5463 15.20227226 87758
IRVINE01                
1 43693U 18088D   20163.11814273  .00002423  00000-0  10149-3 0  9998
2 43693  85.0358  81.2074 0016317 321.8396  38.1690 15.22861029 87882
PROXIMA I               
1 43694U 18088E   20163.30478734  .00000871  00000-0  36271-4 0  9998
2 43694  85.0332  80.9215 0017413 311.2734  48.7007 15.21968158 87907
PROXIMA II              
1 43696U 18088G   20163.76325574  .00000857  00000-0  35685-4 0  9995
2 43696  85.0333  80.6219 0017402 309.3176  50.6522 15.21971082 87978
FACSAT-1                
1 43721U 18096C   20163.44529447  .00001333  00000-0  52553-4 0  9996
2 43721  97.4207 237.0517 0018731 140.0404 220.2217 15.27213021 85470
CENTAURI-2              
1 43722U 18096D   20162.81812983  .00001765  00000-0  67604-4 0  9999
2 43722  97.4217 236.6968 0018705 141.8879 218.3687 15.27735530 85386
INNOSAT-2               
1 43738U 18096V   20163.57508918  .00002772  00000-0  96406-4 0  9991
2 43738  97.4232 239.3952 0024462 147.0790 213.1980 15.30311845 85630
SIRION PATHFINDER-2     
1 43759U 18099B   20163.62244427  .00000509  00000-0  51410-4 0  9997
2 43759  97.7055 235.3820 0013776 196.3281 163.7498 14.95278437 83065
CORVUS-BC 4             
1 43767U 18099K   20163.15980244  .00000256  00000-0  28784-4 0  9995
2 43767  97.7036 234.3450 0011154 201.0739 159.0023 14.94724558 82960
MOVE-II                 
1 43780U 18099Y   20163.70299028  .00000186  00000-0  21978-4 0  9994
2 43780  97.7063 235.3902 0012771 207.8421 152.2118 14.95399852 83053
SPACEBEE-7              
1 43816U 18099BL  20162.43924553  .00000015  00000-0  64809-5 0  9993
2 43816  97.7077 234.5349 0012932 195.9628 164.1187 14.95692393 82445
SPACEBEE-5              
1 43817U 18099BM  20162.66299684  .00000801  00000-0  75942-4 0  9991
2 43817  97.7121 235.1899 0013002 195.1199 164.9636 14.96295215 82492
SPACEBEE-6              
1 43818U 18099BN  20163.67453984  .00000846  00000-0  80727-4 0  9995
2 43818  97.7087 235.8862 0013214 191.1504 168.9426 14.95880300 82789
SHIELDS 1               
1 43850U 18104B   20163.08543943  .00000464  00000-0  18771-4 0  9994
2 43850  85.0291 179.5650 0017320  93.2994 267.0230 15.21384269 82505
STF-1                   
1 43852U 18104D   20163.75583021  .00001019  00000-0  43623-4 0  9992
2 43852  85.0333 179.6591 0017010 103.5896 256.7242 15.21275949 82581
ZACUBE-2                
1 43907U 18111AH  20163.74225534  .00000389  00000-0  18531-4 0  9991
2 43907  97.2662  63.6787 0022009 159.4634 200.7493 15.24585915 81143
LUME 1                  
1 43908U 18111AJ  20162.74948027  .00000803  00000-0  34770-4 0  9994
2 43908  97.2664  62.8819 0021636 162.3898 197.8095 15.25028963 81008
AOBA VELOX-IV           
1 43940U 19003J   20163.66993811  .00001625  00000-0  67544-4 0  9992
2 43940  97.2281 215.1474 0022218 241.6655 118.2343 15.24998040 77760
CATSAT-2                
1 44029U 98067PV  20162.73784396  .00017421  00000-0  17833-3 0  9997
2 44029  51.6391 350.0837 0003971  69.9891 290.1531 15.65093720 77478
DELPHINI                
1 44030U 98067PW  20162.75940573  .00018777  00000-0  18451-3 0  9994
2 44030  51.6352 348.6170 0003510  69.9113 290.2260 15.66065502 77463
UNITE                   
1 44031U 98067PX  20162.77969484  .00009257  00000-0  11306-3 0  9994
2 44031  51.6386 355.5754 0003183  62.6150 297.5167 15.61231045 77371
CATSAT-1                
1 44033U 98067PZ  20162.61006651  .00016987  00000-0  17403-3 0  9999
2 44033  51.6392 350.7366 0003900  67.9154 292.2255 15.65094532 77366
RAAVANA-1               
1 44329U 98067QE  20162.97062713  .00009925  00000-0  13725-3 0  9994
2 44329  51.6403   6.6529 0005194 344.7281  15.3553 15.57809662 55998
UGUISU                  
1 44330U 98067QF  20162.79029356  .00009348  00000-0  13008-3 0  9995
2 44330  51.6393   7.6938 0005187 342.2955  17.7856 15.57723817 55940
NEPALISAT-1             
1 44331U 98067QG  20163.02729884  .00009735  00000-0  13463-3 0  9991
2 44331  51.6390   6.2794 0005266 346.6968  13.3884 15.57834740 55999
SPOOQY-1                
1 44332U 98067QH  20162.70959716  .00009657  00000-0  13410-3 0  9990
2 44332  51.6393   7.9048 0004250 350.3858   9.7053 15.57737280 55904
SPACEBEE-9              
1 44370U 19037F   20163.32501068  .00006457  00000-0  14902-3 0  9996
2 44370  45.0057 150.0158 0011761 151.6252 208.5279 15.43371097 53651
SPACEBEE-8              
1 44371U 19037G   20162.38096964  .00014230  00000-0  27721-3 0  9997
2 44371  45.0058 149.7473 0009550 145.3204 214.8311 15.47478660 53552
IOD-1 GEMS              
1 44385U 98067QK  20163.15550126  .00015613  00000-0  19509-3 0  9994
2 44385  51.6410   4.1835 0001525 299.2814  60.8027 15.60028420 53506
MOVE-IIB                
1 44398U 19038N   20162.86973683  .00000823  00000-0  50933-4 0  9997
2 44398  97.5357 124.1847 0025983 146.8207 213.4660 15.12310181 51582
SONATE                  
1 44400U 19038Q   20162.83640718  .00000463  00000-0  30638-4 0  9998
2 44400  97.5393 124.1679 0026093 145.7223 214.5698 15.11949662 51571
LUCKY-7                 
1 44406U 19038W   20162.85324776  .00000509  00000-0  33078-4 0  9991
2 44406  97.5389 124.2861 0025527 145.2402 215.0503 15.12213648 51571
BEESAT 9                
1 44412U 19038AC  20163.38155297  .00000700  00000-0  44000-4 0  9997
2 44412  97.5381 124.7888 0023515 148.6917 211.5719 15.12291132 51357
JAISAT-1                
1 44419U 19038F   20162.87461455  .00000612  00000-0  38440-4 0  9996
2 44419  97.5381 124.5475 0022321 149.4709 210.7827 15.12773628 51600
SWIATOWID               
1 44426U 98067QL  20163.70218100  .00017846  00000-0  21477-3 0  9991
2 44426  51.6421   0.8734 0001587 293.8438 155.9925 15.60904375 53612
KRAKSAT                 
1 44427U 98067QM  20163.62908774  .00006451  00000-0  98147-4 0  9995
2 44427  51.6438   6.4402 0002370 294.4795 134.3111 15.55904222 53577
VCC A                   
1 44428U 98067QN  20162.76810768  .00009185  00000-0  13054-3 0  9995
2 44428  51.6418   9.0922 0001796 321.6523  38.4341 15.57178328 53464
ENTRYSAT                
1 44429U 98067QP  20162.74186667  .00010230  00000-0  13958-3 0  9994
2 44429  51.6398   8.1416 0001431 304.6590  55.4268 15.58137669 53473
VCC C                   
1 44430U 98067QQ  20162.78385487  .00013286  00000-0  17175-3 0  9990
2 44430  51.6394   6.9324 0001268 328.3162  31.7755 15.59281827 52329
VCC B                   
1 44431U 98067QR  20162.83215911  .00009218  00000-0  13080-3 0  9992
2 44431  51.6404   8.7570 0001900 318.0836  42.0010 15.57217152 53410
ATL-1                   
1 44830U 19084G   20163.17949360  .00052840  00000-0  30577-3 0  9996
2 44830  96.9745  32.2790 0024164 257.5586 102.2977 15.78021750 29464
SMOG-P                  
1 44832U 19084J   20163.30816079  .00057628  00000-0  31492-3 0  9999
2 44832  96.9751  32.5667 0022988 254.8811 104.9914 15.79318041 29498
